NORAD_CAT_ID,OBJECT_NAME,OBJECT_TYPE,EPOCH,MEAN_MOTION,ECCENTRICITY,INCLINATION,RA_OF_ASC_NODE,ARG_OF_PERICENTER,MEAN_ANOMALY,BSTAR,MEAN_MOTION_DOT,MEAN_MOTION_DDOT,TLE_LINE0,TLE_LINE1,TLE_LINE2,SEMIMAJOR_AXIS,PERIOD,APOGEE,PERIGEE,DECAYED
53897.0,STARLINK-5035,PAYLOAD,2024-05-20 22:03:25,15.08829868,0.0001878,53.2188,36.9609,123.553,236.5641,0.00031391,4.71e-05,0.0,0 STARLINK-5035,1 53897U 22119M   24141.91904661  .00004710  00000-0  31391-3 0  9997,2 53897  53.2188  36.9609 0001878 123.5530 236.5641 15.08829868 92381,6917.911,95.438,541.076,538.477,0.0
53897.0,STARLINK-5035,PAYLOAD,2024-05-21 20:18:49,15.0882576,0.0002163,53.2173,32.793,127.9839,232.1349,0.00056266,8.675e-05,0.0,0 STARLINK-5035,1 53897U 22119M   24142.84640847  .00008675  00000-0  56266-3 0  9995,2 53897  53.2173  32.7930 0002163 127.9839 232.1349 15.08825760 92108,6917.924,95.438,541.285,538.293,0.0
53897.0,STARLINK-5035,PAYLOAD,2024-05-21 21:54:12,15.08843563,0.0002126,53.2181,32.4993,132.3368,227.7804,8.9151e-05,1.131e-05,0.0,0 STARLINK-5035,1 53897U 22119M   24142.91263893  .00001131  00000-0  89151-4 0  9995,2 53897  53.2181  32.4993 0002126 132.3368 227.7804 15.08843563 92533,6917.869,95.437,541.205,538.264,0.0
53897.0,STARLINK-5035,PAYLOAD,2024-05-21 23:29:35,15.08845974,0.0001499,53.2186,32.2049,111.1281,248.9871,9.8042e-05,1.273e-05,0.0,0 STARLINK-5035,1 53897U 22119M   24142.97887829  .00001273  00000-0  98042-4 0  9998,2 53897  53.2186  32.2049 0001499 111.1281 248.9871 15.08845974 92121,6917.862,95.437,540.764,538.69,0.0
53897.0,STARLINK-5035,PAYLOAD,2024-05-22 20:09:36,15.08840826,0.0001622,53.2186,28.3433,115.5256,244.5904,0.00011063,1.473e-05,0.0,0 STARLINK-5035,1 53897U 22119M   24143.84000061  .00001473  00000-0  11063-3 0  9999,2 53897  53.2186  28.3433 0001622 115.5256 244.5904 15.08840826 92256,6917.878,95.438,540.865,538.621,0.0
53897.0,STARLINK-5035,PAYLOAD,2024-05-22 21:44:59,15.0884203,0.0001647,53.2194,28.0445,119.6273,240.4883,4.9058e-05,4.93e-06,0.0,0 STARLINK-5035,1 53897U 22119M   24143.90624136  .00000493  00000-0  49058-4 0  9998,2 53897  53.2194  28.0445 0001647 119.6273 240.4883 15.08842030 92683,6917.874,95.437,540.879,538.6,0.0
53897.0,STARLINK-5035,PAYLOAD,2024-05-22 23:20:22,15.0883369,0.0001273,53.2183,27.7469,92.9732,267.1405,9.0344e-05,1.15e-05,0.0,0 STARLINK-5035,1 53897U 22119M   24143.97248656  .00001150  00000-0  90344-4 0  9999,2 53897  53.2183  27.7469 0001273  92.9732 267.1405 15.08833690 92274,6917.9,95.438,540.645,538.884,0.0
53897.0,STARLINK-5035,PAYLOAD,2024-05-23 21:35:46,15.08841414,0.0001202,53.218,23.584,91.0504,269.0626,2.1475e-05,5.4e-07,0.0,0 STARLINK-5035,1 53897U 22119M   24144.89984417  .00000054  00000-0  21475-4 0  9994,2 53897  53.2180  23.5840 0001202  91.0504 269.0626 15.08841414 92838,6917.876,95.437,540.573,538.91,0.0
53897.0,STARLINK-5035,PAYLOAD,2024-05-24 15:05:01,15.08837574,0.0001176,53.2177,20.3146,77.7502,282.3622,0.00010288,1.35e-05,0.0,0 STARLINK-5035,1 53897U 22119M   24145.62848424  .00001350  00000-0  10288-3 0  9992,2 53897  53.2177  20.3146 0001176  77.7502 282.3622 15.08837574 92945,6917.888,95.438,540.566,538.939,0.0
53897.0,STARLINK-5035,PAYLOAD,2024-05-24 19:51:10,15.0883508,0.0001189,53.2174,19.4186,71.408,288.7042,7.4209e-05,8.93e-06,0.0,0 STARLINK-5035,1 53897U 22119M   24145.82720761  .00000893  00000-0  74209-4 0  9992,2 53897  53.2174  19.4186 0001189  71.4080 288.7042 15.08835080 92554,6917.895,95.438,540.583,538.938,0.0
53897.0,STARLINK-5035,PAYLOAD,2024-05-24 21:26:33,15.08835355,0.0001188,53.2172,19.1211,70.4558,289.6562,7.3644e-05,8.84e-06,0.0,0 STARLINK-5035,1 53897U 22119M   24145.89344761  .00000884  00000-0  73644-4 0  9993,2 53897  53.2172  19.1211 0001188  70.4558 289.6562 15.08835355 92985,6917.895,95.438,540.581,538.938,0.0
53897.0,STARLINK-5035,PAYLOAD,2024-05-25 08:34:15,15.08841782,9.32e-05,53.2171,17.0406,99.24,260.8698,9.2948e-05,1.192e-05,0.0,0 STARLINK-5035,1 53897U 22119M   24146.35712093  .00001192  00000-0  92948-4 0  9993,2 53897  53.2171  17.0406 0000932  99.2400 260.8698 15.08841782 92632,6917.875,95.437,540.385,539.095,0.0
53897.0,STARLINK-5035,PAYLOAD,2024-05-25 21:17:21,15.08833676,0.0001125,53.2173,14.6598,108.5259,251.5855,3.5327e-05,2.74e-06,0.0,0 STARLINK-5035,1 53897U 22119M   24146.88705133  .00000274  00000-0  35327-4 0  9996,2 53897  53.2173  14.6598 0001125 108.5259 251.5855 15.08833676 92714,6917.9,95.438,540.543,538.986,0.0
53897.0,STARLINK-5035,PAYLOAD,2024-05-25 22:52:44,15.08835966,0.0001208,53.2175,14.3645,118.5141,241.5973,4.4328e-05,4.18e-06,0.0,0 STARLINK-5035,1 53897U 22119M   24146.95328965  .00000418  00000-0  44328-4 0  9999,2 53897  53.2175  14.3645 0001208 118.5141 241.5973 15.08835966 93141,6917.893,95.438,540.593,538.922,0.0
53897.0,STARLINK-5035,PAYLOAD,2024-05-26 21:08:07,15.08839338,0.0001045,53.2176,10.2028,107.2906,252.8201,0.00013779,1.906e-05,0.0,0 STARLINK-5035,1 53897U 22119M   24147.88064596  .00001906  00000-0  13779-3 0  9997,2 53897  53.2176  10.2028 0001045 107.2906 252.8201 15.08839338 92869,6917.882,95.438,540.47,539.024,0.0
53897.0,STARLINK-5035,PAYLOAD,2024-05-27 08:15:48,15.08853953,0.000115,53.2176,8.1199,104.0003,256.1117,0.0001541,2.166e-05,0.0,0 STARLINK-5035,1 53897U 22119M   24148.34431404  .00002166  00000-0  15410-3 0  9998,2 53897  53.2176   8.1199 0001150 104.0003 256.1117 15.08853953 92934,6917.838,95.437,540.498,538.907,0.0
53897.0,STARLINK-5035,PAYLOAD,2024-05-27 14:37:22,15.08838027,0.0001471,53.218,6.9347,85.522,274.594,4.2381e-05,3.87e-06,0.0,0 STARLINK-5035,1 53897U 22119M   24148.60928824  .00000387  00000-0  42381-4 0  9995,2 53897  53.2180   6.9347 0001471  85.5220 274.5940 15.08838027 93394,6917.886,95.438,540.769,538.734,0.0
53897.0,STARLINK-5035,PAYLOAD,2024-05-27 19:23:31,15.08843226,0.0001061,53.2175,6.0354,118.908,241.2018,9.1736e-05,1.173e-05,0.0,0 STARLINK-5035,1 53897U 22119M   24148.80800283  .00001173  00000-0  91736-4 0  9997,2 53897  53.2175   6.0354 0001061 118.9080 241.2018 15.08843226 93009,6917.871,95.437,540.47,539.002,0.0
53897.0,STARLINK-5035,PAYLOAD,2024-05-27 20:58:54,15.08842625,0.0001049,53.2177,5.7385,118.4663,241.6435,8.417e-05,1.052e-05,0.0,0 STARLINK-5035,1 53897U 22119M   24148.87424336  .00001052  00000-0  84170-4 0  9995,2 53897  53.2177   5.7385 0001049 118.4663 241.6435 15.08842625 93435,6917.872,95.437,540.463,539.012,0.0
53897.0,STARLINK-5035,PAYLOAD,2024-05-28 20:49:41,15.08843083,0.000101,53.2176,1.2789,112.6618,247.4481,-1.3108e-05,-4.96e-06,0.0,0 STARLINK-5035,1 53897U 22119M   24149.86784439 -.00000496  00000-0 -13108-4 0  9994,2 53897  53.2176   1.2789 0001010 112.6618 247.4481 15.08843083 93161,6917.871,95.437,540.435,539.037,0.0
53897.0,STARLINK-5035,PAYLOAD,2024-05-29 00:00:28,15.08842814,0.0001074,53.2179,0.6846,117.5674,242.5427,-1.7209e-05,-5.62e-06,0.0,0 STARLINK-5035,1 53897U 22119M   24150.00032411 -.00000562  00000-0 -17209-4 0  9998,2 53897  53.2179   0.6846 0001074 117.5674 242.5427 15.08842814 93603,6917.872,95.437,540.48,538.994,0.0
53897.0,STARLINK-5035,PAYLOAD,2024-05-29 20:40:28,15.08840695,9.93e-05,53.2176,356.8195,105.3383,254.7719,3.8971e-05,3.33e-06,0.0,0 STARLINK-5035,1 53897U 22119M   24150.86144350  .00000333  00000-0  38971-4 0  9991,2 53897  53.2176 356.8195 0000993 105.3383 254.7719 15.08840695 93732,6917.878,95.438,540.43,539.056,0.0
53897.0,STARLINK-5035,PAYLOAD,2024-05-30 14:09:43,15.08836348,9.96e-05,53.2176,353.5484,100.0072,260.1032,3.5011e-05,2.69e-06,0.0,0 STARLINK-5035,1 53897U 22119M   24151.59008754  .00000269  00000-0  35011-4 0  9999,2 53897  53.2176 353.5484 0000996 100.0072 260.1032 15.08836348 93848,6917.892,95.438,540.446,539.068,0.0
53897.0,STARLINK-5035,PAYLOAD,2024-05-30 20:31:16,15.08833805,9.66e-05,53.2175,352.3589,100.6139,259.4962,9.2056e-06,-1.41e-06,0.0,0 STARLINK-5035,1 53897U 22119M   24151.85505054 -.00000141  00000-0  92056-5 0  9996,2 53897  53.2175 352.3589 0000966 100.6139 259.4962 15.08833805 93463,6917.899,95.438,540.433,539.096,0.0
53897.0,STARLINK-5035,PAYLOAD,2024-05-30 23:42:02,15.0883369,9.79e-05,53.2176,351.7639,99.5063,260.604,4.6041e-06,-2.14e-06,0.0,0 STARLINK-5035,1 53897U 22119M   24151.98753120 -.00000214  00000-0  46041-5 0  9993,2 53897  53.2176 351.7639 0000979  99.5063 260.6040 15.08833690 93901,6917.9,95.438,540.442,539.087,0.0
53897.0,STARLINK-5035,PAYLOAD,2024-05-31 20:22:03,15.08840492,0.0001,53.2177,347.9025,96.6744,263.4362,1.8362e-06,-2.59e-06,0.0,0 STARLINK-5035,1 53897U 22119M   24152.84864848 -.00000259  00000-0  18362-5 0  9993,2 53897  53.2177 347.9025 0001000  96.6744 263.4362 15.08840492 93612,6917.879,95.438,540.436,539.052,0.0
53897.0,STARLINK-5035,PAYLOAD,2024-06-01 05:54:21,15.08851216,0.0001066,53.2169,346.1171,81.7078,278.4035,7.468e-05,9.01e-06,0.0,0 STARLINK-5035,1 53897U 22119M   24153.24607857  .00000901  00000-0  74680-4 0  9990,2 53897  53.2169 346.1171 0001066  81.7078 278.4035 15.08851216 93678,6917.846,95.437,540.449,538.974,0.0
53897.0,STARLINK-5035,PAYLOAD,2024-06-01 20:12:50,15.08830738,0.0001128,53.2182,343.4395,84.7684,275.3437,3.7889e-05,3.15e-06,0.0,0 STARLINK-5035,1 53897U 22119M   24153.84225541  .00000315  00000-0  37889-4 0  9991,2 53897  53.2182 343.4395 0001128  84.7684 275.3437 15.08830738 93764,6917.909,95.438,540.554,538.993,0.0
53897.0,STARLINK-5035,PAYLOAD,2024-06-02 05:45:09,15.08842344,0.0001168,53.2185,341.6563,86.3955,273.717,4.528e-05,4.33e-06,0.0,0 STARLINK-5035,1 53897U 22119M   24154.23968887  .00000433  00000-0  45280-4 0  9997,2 53897  53.2185 341.6563 0001168  86.3955 273.7170 15.08842344 93826,6917.873,95.437,540.546,538.93,0.0
53897.0,STARLINK-5035,PAYLOAD,2024-06-02 21:39:00,15.08840704,0.0001043,53.2183,338.6814,78.4357,281.6752,1.0789e-05,-1.16e-06,0.0,0 STARLINK-5035,1 53897U 22119M   24154.90209177 -.00000116  00000-0  10789-4 0  9996,2 53897  53.2183 338.6814 0001043  78.4357 281.6752 15.08840704 94349,6917.878,95.438,540.465,539.022,0.0
